[Satellite]
VERSION=1.1
NAME=MOVE-II
NICKNAME=MOVE-II
TLE1=1 43780U 18099Y   20157.74769426  .00000901  00000-0  86667-4 0  9996
TLE2=2 43780  97.7064 229.5343 0012349 228.5366 131.4795 14.95392053 82164
STATUS=0
